GLOBALSTAR M063         
1 26081U 00008A   24277.72141543 -.00000038  00000+0  65856-3 0  9998
2 26081  51.9953  67.0026 0004940 170.4880 202.6002 11.86160088127143
GLOBALSTAR M062         
1 26082U 00008B   24277.85249817  .00000106  00000+0  14583-2 0  9991
2 26082  51.9829 129.5763 0006241 289.6185  83.8598 12.43449227464732
GLOBALSTAR M060         
1 26083U 00008C   24277.71567381 -.00000009  00000+0  81541-3 0  9998
2 26083  52.0027  53.6983 0002701 333.8243 132.8238 12.17644692121123
GLOBALSTAR M064         
1 26084U 00008D   24278.14360483 -.00000032  00000+0  72610-3 0  9994
2 26084  52.0014 167.7417 0001051 317.1027  42.9724 11.88523317136765
GLOBALSTAR M065         
1 31571U 07020A   24277.79633363  .00000018  00000+0  68156-3 0  9995
2 31571  51.9886 286.6264 0010242  97.8194  72.5602 12.61980323801036
GLOBALSTAR M069         
1 31573U 07020C   24277.68496884 -.00000051  00000+0  30420-3 0  9991
2 31573  51.9935 243.2041 0000629 355.9162 175.8401 12.58766492802148
GLOBALSTAR M072         
1 31574U 07020D   24277.92020977 -.00000042  00000+0  34541-3 0  9993
2 31574  52.0103 337.9787 0000465 147.4754  23.5098 12.62265092800611
GLOBALSTAR M071         
1 31576U 07020F   24277.91896775 -.00000065  00000+0  21781-3 0  9998
2 31576  52.0050 247.1927 0000817 317.4843  70.6801 12.62258378463373
